SL-3 R/B                
1 13403U 82079B   25324.80845666  .00005588  00000+0  23268-3 0  9995
2 13403  81.1456 321.5086 0025863 170.5020 189.6707 15.23248987361111
SL-14 R/B               
1 13553U 82092B   25324.72895687  .00000678  00000+0  73678-4 0  9991
2 13553  82.5687 243.2942 0019113 305.7801  73.4475 14.86521560312745
SL-3 R/B                
1 13819U 83010B   25324.46435310  .00012598  00000+0  28666-3 0  9991
2 13819  81.1019 135.7916 0018151  67.4496 292.8665 15.42660173341087
SL-3 R/B                
1 14208U 83075B   25324.89551921  .00010203  00000+0  29582-3 0  9998
2 14208  97.6097 320.6566 0020913 257.6810 102.2091 15.35529244313447
COSMOS 1536             
1 14699U 84013A   25324.45801117  .00006822  00000+0  29522-3 0  9998
2 14699  82.5474 216.2525 0013714 313.2767  46.7324 15.22176708255994
SL-14 R/B               
1 14820U 84027B   25324.46705677  .00000540  00000+0  59175-4 0  9993
2 14820  82.5417 347.4451 0017377 340.1443  19.9095 14.85840681231415
SL-8 R/B                
1 15483U 85006B   25324.85211437  .00000268  00000+0  97627-4 0  9997
2 15483  74.0445 101.4024 0017784  40.1952 121.4058 14.37701236138385
SL-12 R/B(2)            
1 15772U 85042D   25324.45548473  .00000122  00000+0  76419-4 0  9992
2 15772  71.1077 318.4990 0037486 294.0966 176.7858 14.21941793 98869
SL-14 R/B               
1 15945U 85069B   25324.48495198  .00000655  00000+0  71445-4 0  9996
2 15945  82.5247 127.6255 0018522 189.8255 170.2603 14.86285356156614
SL-16 R/B               
1 16182U 85097B   25324.62825780  .00000304  00000+0  17626-3 0  9992
2 16182  71.0043  10.1549 0005550  51.3124 118.9381 14.16579784 71782
SL-14 R/B               
1 16496U 86006B   25324.48850159  .00000767  00000+0  79457-4 0  9997
2 16496  82.5280   2.4884 0075207 274.7911  84.4721 14.86627686132984
COSMOS 1743             
1 16719U 86034A   25324.33665713  .00025600  00000+0  44444-3 0  9990
2 16719  82.5361 187.8318 0006095 350.8837   9.2303 15.50679936163267
